{"type": "FeatureCollection", "features": [{"type": "Feature", "properties": {"id": "berlin", "name": "Berlin"}, "geometry": {"type": "Point", "coordinates": [13.4, 52.52]}}, {"type": "Feature", "properties": {"id": "chicago", "name": "Chicago"}, "geometry": {"type": "Point", "coordinates": [-87.63, 41.88]}}, {"type": "Feature", "properties": {"id": "rotterdam", "name": "Rotterdam"}, "geometry": {"type": "Point", "coordinates": [4.48, 51.92]}}, {"type": "Feature", "properties": {"id": "fukuoka", "name": "Fukuoka"}, "geometry": {"type": "Point", "coordinates": [130.4, 33.59]}}, {"type": "Feature", "properties": {"id": "antwerp", "name": "Antwerp"}, "geometry": {"type": "Point", "coordinates": [4.4, 51.22]}}, {"type": "Feature", "properties": {"id": "london", "name": "London"}, "geometry": {"type": "Point", "coordinates": [-0.13, 51.51]}}]}