{"type": "FeatureCollection", "features": [{"type": "Feature", "properties": {"id": "winterfell", "name": "Winterfell"}, "geometry": {"type": "Point", "coordinates": [-1, 45]}}, {"type": "Feature", "properties": {"id": "castle-black", "name": "Castle Black"}, "geometry": {"type": "Point", "coordinates": [0, 50.3]}}, {"type": "Feature", "properties": {"id": "the-eyrie", "name": "The Eyrie"}, "geometry": {"type": "Point", "coordinates": [5.5, 35.8]}}, {"type": "Feature", "properties": {"id": "riverrun", "name": "Riverrun"}, "geometry": {"type": "Point", "coordinates": [-1.5, 34.2]}}, {"type": "Feature", "properties": {"id": "the-twins", "name": "The Twins"}, "geometry": {"type": "Point", "coordinates": [-2.2, 38.2]}}, {"type": "Feature", "properties": {"id": "casterly-rock", "name": "Casterly Rock"}, "geometry": {"type": "Point", "coordinates": [-8.2, 31.3]}}, {"type": "Feature", "properties": {"id": "kings-landing", "name": "King's Landing"}, "geometry": {"type": "Point", "coordinates": [5.2, 28.2]}}, {"type": "Feature", "properties": {"id": "highgarden", "name": "Highgarden"}, "geometry": {"type": "Point", "coordinates": [-5, 22]}}, {"type": "Feature", "properties": {"id": "oldtown", "name": "Oldtown"}, "geometry": {"type": "Point", "coordinates": [-8.8, 19.2]}}, {"type": "Feature", "properties": {"id": "storms-end", "name": "Storm's End"}, "geometry": {"type": "Point", "coordinates": [8.1, 23.2]}}, {"type": "Feature", "properties": {"id": "sunspear", "name": "Sunspear"}, "geometry": {"type": "Point", "coordinates": [7.2, 13]}}, {"type": "Feature", "properties": {"id": "pyke", "name": "Pyke"}, "geometry": {"type": "Point", "coordinates": [-11.1, 35.4]}}, {"type": "Feature", "properties": {"id": "dragonstone", "name": "Dragonstone"}, "geometry": {"type": "Point", "coordinates": [10, 31]}}]}