{"type": "FeatureCollection", "features": [{"type": "Feature", "properties": {"id": "beyond-the-wall", "name": "Beyond the Wall"}, "geometry": {"type": "Polygon", "coordinates": [[[-9, 50], [-8.9882, 50.1993], [-8.9466, 50.3946], [-8.8995, 50.588], [-8.8528, 50.7816], [-8.8875, 50.9792], [-8.9043, 51.1792], [-8.9903, 51.3606], [-9.0547, 51.5508], [-8.9108, 51.6906], [-8.8151, 51.8669], [-8.7108, 52.0433], [-8.7065, 52.2483], [-8.6044, 52.4215], [-8.5971, 52.6224], [-8.5674, 52.8161], [-8.5, 53], [-8.3361, 53.1637], [-8.1304, 53.2702], [-7.9501, 53.4217], [-7.7207, 53.4746], [-7.5428, 53.6257], [-7.3742, 53.787], [-7.1671, 53.9047], [-6.9302, 53.9302], [-6.7393, 54.0689], [-6.615, 54.2695], [-6.5306, 54.4853], [-6.428, 54.6931], [-6.2921, 54.8797], [-6.2162, 55.0977], [-6.0549, 55.2702], [-6, 55.5], [-5.7766, 55.3431], [-5.5382, 55.21], [-5.2608, 55.2488], [-4.9953, 55.1594], [-4.7287, 55.1723], [-4.4619, 55.1647], [-4.2151, 55.2826], [-3.9415, 55.2822], [-3.6878, 55.3878], [-3.4153, 55.4234], [-3.1465, 55.3706], [-2.8726, 55.3757], [-2.6588, 55.5395], [-2.4216, 55.6672], [-2.2113, 55.8343], [-2, 56], [-1.6796, 55.9045], [-1.4209, 55.6926], [-1.0882, 55.639], [-0.8154, 55.4412], [-0.5106, 55.3087], [-0.1912, 55.2167], [0.1395, 55.1716], [0.472, 55.2], [0.7753, 55.3483], [1.1125, 55.33], [1.4388, 55.3492], [1.764, 55.382], [2.0889, 55.4321], [2.4038, 55.5265], [2.6993, 55.6688], [3, 55.8], [3.2612, 55.7244], [3.5331, 55.7232], [3.738, 55.5441], [3.9856, 55.4311], [4.1932, 55.2565], [4.4456, 55.1571], [4.7107, 55.1196], [4.9736, 55.0687], [5.236, 55.0177], [5.4754, 54.899], [5.7325, 54.8173], [6.0015, 54.8366], [6.2747, 54.8221], [6.5479, 54.8081], [6.7998, 54.692], [7, 54.5], [7.074, 54.2972], [7.1693, 54.1035], [7.3481, 53.9826], [7.5147, 53.8454], [7.7039, 53.7572], [7.8782, 53.6423], [8.0629, 53.5462], [8.2457, 53.4465], [8.4427, 53.3514], [8.575, 53.1771], [8.6393, 52.973], [8.7459, 52.7874], [8.8336, 52.5986], [8.9175, 52.4081], [9.0087, 52.2142], [9, 52], [8.9251, 51.8871], [8.8828, 51.7583], [8.8297, 51.6314], [8.835, 51.4939], [8.7602, 51.3781], [8.7297, 51.2436], [8.6264, 51.155], [8.5359, 51.0535], [8.5813, 50.9262], [8.6017, 50.7926], [8.6189, 50.6559], [8.5764, 50.5248], [8.5656, 50.392], [8.5627, 50.2588], [8.5531, 50.1241], [8.5, 50], [7.391, 50.1451], [6.3295, 50.4975], [5.1931, 50.5511], [4.174, 51.0568], [3.0538, 51.0706], [1.9578, 50.8386], [0.8458, 50.7549], [-0.25, 50.5476], [-1.2389, 49.989], [-2.3331, 49.6842], [-3.4612, 49.6192], [-4.5706, 49.4043], [-5.6946, 49.4515], [-6.8196, 49.4468], [-7.8967, 49.7749], [-9, 50]]]}}, {"type": "Feature", "properties": {"id": "the-north", "name": "The North"}, "geometry": {"type": "Polygon", "coordinates": [[[-9, 50], [-7.8967, 49.7749], [-6.8196, 49.4468], [-5.6946, 49.4515], [-4.5706, 49.4043], [-3.4612, 49.6192], [-2.3331, 49.6842], [-1.2389, 49.989], [-0.25, 50.5476], [0.8458, 50.7549], [1.9578, 50.8386], [3.0538, 51.0706], [4.174, 51.0568], [5.1931, 50.5511], [6.3295, 50.4975], [7.391, 50.1451], [8.5, 50], [8.3904, 49.8302], [8.2421, 49.693], [8.2104, 49.495], [8.1714, 49.2984], [8.1806, 49.1022], [8.1534, 48.9076], [8.0663, 48.7306], [8.0276, 48.5371], [7.9738, 48.3461], [7.891, 48.1658], [7.9114, 47.9659], [7.8611, 47.7713], [7.9492, 47.588], [8.0377, 47.4049], [8.0382, 47.2006], [8, 47], [8.1418, 46.9487], [8.263, 46.859], [8.3671, 46.7519], [8.4646, 46.6389], [8.5166, 46.4999], [8.6009, 46.3778], [8.7131, 46.2749], [8.7602, 46.1301], [8.7789, 45.9818], [8.8529, 45.852], [8.8402, 45.7055], [8.8509, 45.5589], [8.9056, 45.4231], [8.9166, 45.2771], [8.9411, 45.1334], [9, 45], [9.0066, 44.7947], [8.983, 44.5907], [8.972, 44.3862], [8.9543, 44.1821], [8.9044, 43.9744], [8.8161, 43.7799], [8.8649, 43.5729], [8.9068, 43.3644], [8.8352, 43.1583], [8.6692, 43.0167], [8.5772, 42.823], [8.5635, 42.609], [8.4712, 42.418], [8.3202, 42.2689], [8.1233, 42.1782], [8, 42], [7.9247, 41.8423], [7.8092, 41.7112], [7.7601, 41.5451], [7.7262, 41.3752], [7.6983, 41.2064], [7.6524, 41.0415], [7.6173, 40.8731], [7.6222, 40.7011], [7.4972, 40.579], [7.372, 40.4572], [7.2985, 40.294], [7.1627, 40.1774], [7.1467, 40.0025], [7.1241, 39.8284], [7.0273, 39.6773], [7, 39.5], [6.7426, 39.4465], [6.4868, 39.3857], [6.2463, 39.2778], [5.9926, 39.2062], [5.7134, 39.2207], [5.4708, 39.3596], [5.2172, 39.2532], [4.9435, 39.2262], [4.6814, 39.146], [4.4663, 38.9762], [4.2311, 38.8354], [4.0631, 38.6188], [3.797, 38.5867], [3.5291, 38.581], [3.2567, 38.5919], [3, 38.5], [2.5375, 38.5005], [2.0763, 38.4655], [1.6653, 38.2534], [1.2392, 38.0734], [0.7917, 37.9346], [0.4189, 37.6507], [-0.0502, 37.7128], [-0.5, 37.5661], [-0.9647, 37.5404], [-1.4298, 37.526], [-1.8937, 37.5676], [-2.352, 37.6507], [-2.7909, 37.8081], [-3.1867, 38.0545], [-3.5564, 38.3447], [-4, 38.5], [-4.2038, 38.5198], [-4.406, 38.4874], [-4.596, 38.5599], [-4.7776, 38.6516], [-4.979, 38.6538], [-5.1776, 38.6205], [-5.3587, 38.5337], [-5.5475, 38.4651], [-5.712, 38.575], [-5.866, 38.6992], [-6.0624, 38.7447], [-6.2259, 38.8625], [-6.3977, 38.9759], [-6.5942, 39.0371], [-6.7965, 39.0121], [-7, 39], [-7.2057, 39.0374], [-7.374, 39.1614], [-7.502, 39.3242], [-7.6794, 39.431], [-7.8315, 39.5664], [-7.9437, 39.7364], [-8.0671, 39.9049], [-8.2577, 39.9904], [-8.3304, 40.1877], [-8.4594, 40.3537], [-8.6498, 40.4447], [-8.7974, 40.5955], [-8.9836, 40.6811], [-9.1387, 40.8151], [-9.3028, 40.9399], [-9.5, 41], [-9.5226, 41.2036], [-9.4542, 41.3967], [-9.374, 41.5816], [-9.3457, 41.7811], [-9.2953, 41.9774], [-9.3058, 42.1797], [-9.2078, 42.3582], [-9.1795, 42.5598], [-9.0991, 42.7473], [-9.0133, 42.9324], [-8.9677, 43.1322], [-8.9607, 43.337], [-8.8844, 43.5284], [-8.7977, 43.7153], [-8.6706, 43.8804], [-8.5, 44], [-8.6905, 44.1394], [-8.8124, 44.3415], [-8.8213, 44.5772], [-8.9187, 44.792], [-9.098, 44.941], [-9.3261, 44.9893], [-9.5225, 45.11], [-9.6601, 45.2949], [-9.6768, 45.5154], [-9.7266, 45.7309], [-9.8078, 45.9362], [-9.9115, 46.1312], [-9.9314, 46.3546], [-9.8809, 46.5732], [-9.9252, 46.7909], [-10, 47], [-9.8291, 47.1249], [-9.7385, 47.3162], [-9.6744, 47.5117], [-9.5816, 47.6954], [-9.5005, 47.8838], [-9.4181, 48.0716], [-9.2436, 48.1925], [-9.1525, 48.3842], [-9.1729, 48.6049], [-9.1029, 48.8151], [-9.2262, 48.9976], [-9.2794, 49.2113], [-9.2368, 49.4198], [-9.1237, 49.6], [-9.0651, 49.801], [-9, 50]]]}}, {"type": "Feature", "properties": {"id": "the-vale", "name": "The Vale"}, "geometry": {"type": "Polygon", "coordinates": [[[3, 38.5], [3.2567, 38.5919], [3.5291, 38.581], [3.797, 38.5867], [4.0631, 38.6188], [4.2311, 38.8354], [4.4663, 38.9762], [4.6814, 39.146], [4.9435, 39.2262], [5.2172, 39.2532], [5.4708, 39.3596], [5.7134, 39.2207], [5.9926, 39.2062], [6.2463, 39.2778], [6.4868, 39.3857], [6.7426, 39.4465], [7, 39.5], [7.1189, 39.3432], [7.2908, 39.2474], [7.4045, 39.0879], [7.4542, 38.8985], [7.4878, 38.7121], [7.4962, 38.5228], [7.5195, 38.3331], [7.5976, 38.1586], [7.6949, 38.0025], [7.8, 37.8515], [7.9313, 37.7201], [8.0202, 37.557], [8.1553, 37.4205], [8.3283, 37.3372], [8.4477, 37.1857], [8.5, 37], [8.4289, 36.8678], [8.4011, 36.7203], [8.3247, 36.5926], [8.2295, 36.4783], [8.2839, 36.3358], [8.2901, 36.1833], [8.2316, 36.0425], [8.2185, 35.8907], [8.1161, 35.7886], [8.003, 35.6986], [7.8881, 35.6091], [7.802, 35.4915], [7.7557, 35.349], [7.7198, 35.2035], [7.5973, 35.1154], [7.5, 35], [7.4854, 34.8689], [7.4682, 34.7381], [7.4697, 34.6061], [7.4843, 34.4748], [7.4973, 34.3423], [7.4977, 34.2091], [7.546, 34.0852], [7.593, 33.9607], [7.6576, 33.8392], [7.7693, 33.759], [7.8078, 33.6306], [7.855, 33.5052], [7.8599, 33.3698], [7.864, 33.2344], [7.944, 33.1241], [8, 33], [7.7593, 32.8271], [7.4865, 32.7111], [7.2511, 32.5278], [6.9699, 32.4278], [6.6692, 32.4195], [6.3761, 32.4874], [6.0972, 32.367], [5.7936, 32.3572], [5.5104, 32.4466], [5.2158, 32.4084], [4.9535, 32.5514], [4.6547, 32.5558], [4.3684, 32.6404], [4.0744, 32.5881], [3.7966, 32.4826], [3.5, 32.5], [3.516, 32.6711], [3.4505, 32.8299], [3.4408, 32.9966], [3.4148, 33.1616], [3.284, 33.2714], [3.2102, 33.4254], [3.1462, 33.5828], [3.029, 33.7058], [3.0441, 33.8769], [3.1299, 34.0257], [3.0641, 34.1832], [3.0607, 34.3539], [3.1099, 34.5152], [3.1002, 34.6835], [3.0235, 34.8333], [3, 35], [2.9859, 35.2251], [2.9458, 35.447], [2.9101, 35.6693], [2.8808, 35.8925], [3.0079, 36.0849], [3.1091, 36.2921], [3.0708, 36.5273], [3.1556, 36.75], [3.1462, 36.9723], [3.0754, 37.1832], [3.0485, 37.4018], [3.0134, 37.6193], [2.9569, 37.8366], [2.9211, 38.0583], [2.9084, 38.2885], [3, 38.5]]]}}, {"type": "Feature", "properties": {"id": "the-riverlands", "name": "The Riverlands"}, "geometry": {"type": "Polygon", "coordinates": [[[-7, 39], [-6.7965, 39.0121], [-6.5942, 39.0371], [-6.3977, 38.9759], [-6.2259, 38.8625], [-6.0624, 38.7447], [-5.866, 38.6992], [-5.712, 38.575], [-5.5475, 38.4651], [-5.3587, 38.5337], [-5.1776, 38.6205], [-4.979, 38.6538], [-4.7776, 38.6516], [-4.596, 38.5599], [-4.406, 38.4874], [-4.2038, 38.5198], [-4, 38.5], [-3.5564, 38.3447], [-3.1867, 38.0545], [-2.7909, 37.8081], [-2.352, 37.6507], [-1.8937, 37.5676], [-1.4298, 37.526], [-0.9647, 37.5404], [-0.5, 37.5661], [-0.0502, 37.7128], [0.4189, 37.6507], [0.7917, 37.9346], [1.2392, 38.0734], [1.6653, 38.2534], [2.0763, 38.4655], [2.5375, 38.5005], [3, 38.5], [2.9084, 38.2885], [2.9211, 38.0583], [2.9569, 37.8366], [3.0134, 37.6193], [3.0485, 37.4018], [3.0754, 37.1832], [3.1462, 36.9723], [3.1556, 36.75], [3.0708, 36.5273], [3.1091, 36.2921], [3.0079, 36.0849], [2.8808, 35.8925], [2.9101, 35.6693], [2.9458, 35.447], [2.9859, 35.2251], [3, 35], [3.0235, 34.8333], [3.1002, 34.6835], [3.1099, 34.5152], [3.0607, 34.3539], [3.0641, 34.1832], [3.1299, 34.0257], [3.0441, 33.8769], [3.029, 33.7058], [3.1462, 33.5828], [3.2102, 33.4254], [3.284, 33.2714], [3.4148, 33.1616], [3.4408, 32.9966], [3.4505, 32.8299], [3.516, 32.6711], [3.5, 32.5], [3.2594, 32.42], [3.0092, 32.4612], [2.756, 32.4382], [2.5455, 32.2956], [2.3127, 32.1971], [2.0838, 32.09], [1.8279, 32.0736], [1.5812, 32.1439], [1.4446, 31.9342], [1.2432, 31.7857], [1.0271, 31.6618], [0.8578, 31.4791], [0.6318, 31.3454], [0.4949, 31.1213], [0.2414, 31.0854], [0, 31], [-0.1716, 30.8873], [-0.3765, 30.8742], [-0.5749, 30.8879], [-0.7735, 30.8784], [-0.9582, 30.9642], [-1.1617, 30.9576], [-1.3607, 30.955], [-1.5557, 30.9156], [-1.746, 30.9865], [-1.9296, 31.0734], [-2.1332, 31.1126], [-2.3353, 31.0659], [-2.5145, 31.1647], [-2.7132, 31.2132], [-2.8791, 31.3341], [-3, 31.5], [-2.9982, 31.6756], [-3.0712, 31.8354], [-3.099, 32.0055], [-3.0911, 32.1777], [-3.1578, 32.3466], [-3.3006, 32.4586], [-3.3062, 32.6362], [-3.3696, 32.8022], [-3.4188, 32.968], [-3.4521, 33.1377], [-3.4927, 33.3064], [-3.5645, 33.4644], [-3.6837, 33.59], [-3.8043, 33.7143], [-3.9167, 33.8472], [-4, 34], [-4.0681, 34.1007], [-4.1026, 34.2172], [-4.1925, 34.2984], [-4.3003, 34.3537], [-4.4153, 34.3941], [-4.5015, 34.4803], [-4.5592, 34.5845], [-4.6298, 34.6804], [-4.7215, 34.7584], [-4.839, 34.7843], [-4.9578, 34.7872], [-5.0675, 34.833], [-5.1787, 34.8667], [-5.2892, 34.9025], [-5.3935, 34.9537], [-5.5, 35], [-5.5266, 35.1281], [-5.5375, 35.2585], [-5.5728, 35.3862], [-5.6483, 35.495], [-5.6913, 35.6204], [-5.6933, 35.753], [-5.7629, 35.8642], [-5.8192, 35.9827], [-5.8229, 36.113], [-5.8406, 36.2422], [-5.8337, 36.3726], [-5.8465, 36.5026], [-5.9114, 36.6172], [-5.9519, 36.7425], [-6.0075, 36.8654], [-6, 37], [-6.0463, 37.1412], [-6.1121, 37.2744], [-6.2166, 37.3796], [-6.3152, 37.4904], [-6.4447, 37.5623], [-6.5412, 37.6747], [-6.6295, 37.794], [-6.7558, 37.8721], [-6.7637, 38.017], [-6.7744, 38.1617], [-6.7919, 38.3066], [-6.8414, 38.444], [-6.8472, 38.5905], [-6.888, 38.7313], [-6.912, 38.879], [-7, 39]]]}}, {"type": "Feature", "properties": {"id": "the-westerlands", "name": "The Westerlands"}, "geometry": {"type": "Polygon", "coordinates": [[[-5.5, 35], [-5.3935, 34.9537], [-5.2892, 34.9025], [-5.1787, 34.8667], [-5.0675, 34.833], [-4.9578, 34.7872], [-4.839, 34.7843], [-4.7215, 34.7584], [-4.6298, 34.6804], [-4.5592, 34.5845], [-4.5015, 34.4803], [-4.4153, 34.3941], [-4.3003, 34.3537], [-4.1925, 34.2984], [-4.1026, 34.2172], [-4.0681, 34.1007], [-4, 34], [-3.9167, 33.8472], [-3.8043, 33.7143], [-3.6837, 33.59], [-3.5645, 33.4644], [-3.4927, 33.3064], [-3.4521, 33.1377], [-3.4188, 32.968], [-3.3696, 32.8022], [-3.3062, 32.6362], [-3.3006, 32.4586], [-3.1578, 32.3466], [-3.0911, 32.1777], [-3.099, 32.0055], [-3.0712, 31.8354], [-2.9982, 31.6756], [-3, 31.5], [-2.9148, 31.2906], [-2.9313, 31.0651], [-2.9955, 30.847], [-2.9462, 30.6251], [-2.9216, 30.4055], [-2.9227, 30.1846], [-3.0208, 29.9778], [-2.9981, 29.75], [-2.859, 29.5613], [-2.817, 29.3307], [-2.8084, 29.1013], [-2.8463, 28.8748], [-2.9169, 28.6561], [-3.0303, 28.4562], [-3.0164, 28.228], [-3, 28], [-3.1901, 27.947], [-3.3841, 27.9105], [-3.5311, 27.7694], [-3.7283, 27.7178], [-3.914, 27.647], [-4.0686, 27.5221], [-4.24, 27.415], [-4.4415, 27.3992], [-4.6348, 27.4489], [-4.832, 27.4184], [-5.027, 27.3669], [-5.223, 27.4145], [-5.4065, 27.4982], [-5.6012, 27.5507], [-5.803, 27.544], [-6, 27.5], [-6.1615, 27.5889], [-6.3006, 27.7098], [-6.43, 27.8405], [-6.58, 27.947], [-6.7, 28.0893], [-6.8498, 28.2], [-6.9919, 28.3289], [-7.18, 28.3667], [-7.3583, 28.4465], [-7.5521, 28.4222], [-7.6899, 28.5547], [-7.8654, 28.6304], [-8.0389, 28.717], [-8.2324, 28.7298], [-8.3862, 28.8451], [-8.5, 29], [-8.515, 29.1339], [-8.5273, 29.268], [-8.5156, 29.4037], [-8.4645, 29.5299], [-8.51, 29.6571], [-8.5121, 29.7921], [-8.5219, 29.9252], [-8.5161, 30.0585], [-8.6112, 30.1601], [-8.6786, 30.2818], [-8.7726, 30.384], [-8.8868, 30.4631], [-8.9144, 30.5995], [-8.9744, 30.725], [-8.9698, 30.8641], [-9, 31], [-8.9196, 31.1465], [-8.9256, 31.3136], [-8.8506, 31.4564], [-8.7881, 31.6051], [-8.6513, 31.6943], [-8.5522, 31.8242], [-8.4848, 31.9746], [-8.3609, 32.0832], [-8.2343, 32.1828], [-8.0928, 32.2597], [-7.9775, 32.3758], [-7.9148, 32.5269], [-7.7698, 32.6017], [-7.6703, 32.7309], [-7.5788, 32.8614], [-7.5, 33], [-7.4609, 33.1078], [-7.403, 33.2068], [-7.3421, 33.3034], [-7.2818, 33.4004], [-7.2578, 33.5163], [-7.2511, 33.6344], [-7.2002, 33.744], [-7.1079, 33.8219], [-7.0662, 33.9317], [-7.0027, 34.0306], [-6.9448, 34.1322], [-6.8818, 34.2307], [-6.7721, 34.278], [-6.6621, 34.3245], [-6.564, 34.3965], [-6.5, 34.5], [-6.4486, 34.5544], [-6.3927, 34.6043], [-6.3192, 34.6186], [-6.2474, 34.64], [-6.1742, 34.6465], [-6.1016, 34.6349], [-6.0286, 34.6436], [-5.9602, 34.6704], [-5.8925, 34.7004], [-5.8477, 34.7594], [-5.7878, 34.8019], [-5.7154, 34.8147], [-5.6599, 34.8592], [-5.6039, 34.903], [-5.5477, 34.947], [-5.5, 35]]]}}, {"type": "Feature", "properties": {"id": "the-crownlands", "name": "The Crownlands"}, "geometry": {"type": "Polygon", "coordinates": [[[3.5, 32.5], [3.7966, 32.4826], [4.0744, 32.5881], [4.3684, 32.6404], [4.6547, 32.5558], [4.9535, 32.5514], [5.2158, 32.4084], [5.5104, 32.4466], [5.7936, 32.3572], [6.0972, 32.367], [6.3761, 32.4874], [6.6692, 32.4195], [6.9699, 32.4278], [7.2511, 32.5278], [7.4865, 32.7111], [7.7593, 32.8271], [8, 33], [8.0976, 32.8274], [8.2281, 32.678], [8.2486, 32.4811], [8.3027, 32.2906], [8.3342, 32.0991], [8.399, 31.9161], [8.4494, 31.727], [8.4394, 31.5316], [8.4994, 31.3364], [8.455, 31.137], [8.4255, 30.9393], [8.336, 30.7605], [8.3114, 30.5605], [8.3867, 30.3735], [8.4148, 30.1781], [8.5, 30], [8.4311, 29.8448], [8.45, 29.676], [8.3387, 29.5548], [8.2506, 29.4158], [8.1578, 29.2859], [8.063, 29.1575], [7.9416, 29.0538], [7.828, 28.9415], [7.7618, 28.794], [7.6819, 28.6534], [7.546, 28.5659], [7.4176, 28.4676], [7.3104, 28.3532], [7.2101, 28.2327], [7.1323, 28.0918], [7, 28], [6.9204, 27.9099], [6.8779, 27.7975], [6.8006, 27.7059], [6.6982, 27.6437], [6.7052, 27.5245], [6.6685, 27.4108], [6.604, 27.309], [6.5914, 27.1891], [6.5517, 27.0776], [6.4701, 26.9918], [6.3917, 26.9019], [6.3642, 26.7858], [6.271, 26.7169], [6.1857, 26.6383], [6.1078, 26.5491], [6, 26.5], [5.8142, 26.5746], [5.6299, 26.6529], [5.4297, 26.6639], [5.2294, 26.656], [5.0597, 26.5377], [4.8533, 26.5238], [4.6537, 26.5773], [4.4547, 26.5218], [4.2641, 26.4572], [4.0638, 26.4772], [3.8757, 26.4161], [3.6789, 26.3959], [3.5224, 26.2706], [3.3784, 26.1312], [3.1775, 26.0995], [3, 26], [2.865, 26.1265], [2.7469, 26.2688], [2.5947, 26.3805], [2.5015, 26.5447], [2.3564, 26.6718], [2.2782, 26.8481], [2.2839, 27.0431], [2.191, 27.2146], [2.0578, 27.3645], [2.0209, 27.5616], [1.9885, 27.7543], [2.0142, 27.948], [1.8874, 28.0877], [1.7616, 28.2282], [1.6468, 28.3795], [1.5, 28.5], [1.4229, 28.6692], [1.3273, 28.8287], [1.248, 28.9978], [1.2076, 29.1802], [1.1783, 29.3679], [1.1668, 29.5575], [1.1, 29.7392], [0.9682, 29.8809], [0.8696, 30.0526], [0.8541, 30.25], [0.7616, 30.4276], [0.5916, 30.5335], [0.478, 30.6899], [0.3483, 30.8333], [0.1543, 30.8752], [0, 31], [0.2414, 31.0854], [0.4949, 31.1213], [0.6318, 31.3454], [0.8578, 31.4791], [1.0271, 31.6618], [1.2432, 31.7857], [1.4446, 31.9342], [1.5812, 32.1439], [1.8279, 32.0736], [2.0838, 32.09], [2.3127, 32.1971], [2.5455, 32.2956], [2.756, 32.4382], [3.0092, 32.4612], [3.2594, 32.42], [3.5, 32.5]]]}}, {"type": "Feature", "properties": {"id": "the-reach", "name": "The Reach"}, "geometry": {"type": "Polygon", "coordinates": [[[-3, 31.5], [-2.8791, 31.3341], [-2.7132, 31.2132], [-2.5145, 31.1647], [-2.3353, 31.0659], [-2.1332, 31.1126], [-1.9296, 31.0734], [-1.746, 30.9865], [-1.5557, 30.9156], [-1.3607, 30.955], [-1.1617, 30.9576], [-0.9582, 30.9642], [-0.7735, 30.8784], [-0.5749, 30.8879], [-0.3765, 30.8742], [-0.1716, 30.8873], [0, 31], [0.1543, 30.8752], [0.3483, 30.8333], [0.478, 30.6899], [0.5916, 30.5335], [0.7616, 30.4276], [0.8541, 30.25], [0.8696, 30.0526], [0.9682, 29.8809], [1.1, 29.7392], [1.1668, 29.5575], [1.1783, 29.3679], [1.2076, 29.1802], [1.248, 28.9978], [1.3273, 28.8287], [1.4229, 28.6692], [1.5, 28.5], [1.6468, 28.3795], [1.7616, 28.2282], [1.8874, 28.0877], [2.0142, 27.948], [1.9885, 27.7543], [2.0209, 27.5616], [2.0578, 27.3645], [2.191, 27.2146], [2.2839, 27.0431], [2.2782, 26.8481], [2.3564, 26.6718], [2.5015, 26.5447], [2.5947, 26.3805], [2.7469, 26.2688], [2.865, 26.1265], [3, 26], [2.9437, 25.7089], [2.8919, 25.4169], [2.9244, 25.1222], [2.9602, 24.8278], [2.7898, 24.5882], [2.6253, 24.3446], [2.5184, 24.0694], [2.3624, 23.8188], [2.1011, 23.6824], [1.9205, 23.4495], [1.7286, 23.233], [1.5823, 22.9835], [1.421, 22.7443], [1.323, 22.4729], [1.1654, 22.2338], [1, 22], [0.9979, 21.728], [1.031, 21.4581], [0.9497, 21.1961], [0.7959, 20.9689], [0.783, 20.7034], [0.7383, 20.4414], [0.7888, 20.1808], [0.8272, 19.9182], [0.6523, 19.716], [0.5563, 19.4665], [0.4549, 19.2205], [0.2883, 19.0131], [0.3589, 18.7394], [0.2849, 18.4665], [0.1914, 18.2034], [0, 18], [-0.1642, 17.9158], [-0.3422, 17.8672], [-0.5264, 17.823], [-0.6667, 17.6957], [-0.7962, 17.5575], [-0.8992, 17.3987], [-1.0897, 17.362], [-1.2427, 17.2427], [-1.3686, 17.1093], [-1.4839, 16.9666], [-1.5543, 16.7959], [-1.663, 16.6467], [-1.7753, 16.5013], [-1.8581, 16.3372], [-1.9733, 16.1872], [-2, 16], [-2.2582, 16.0892], [-2.5304, 16.0671], [-2.7837, 15.9698], [-3.055, 15.964], [-3.3283, 15.9652], [-3.5646, 16.1023], [-3.8223, 16.1641], [-4.0651, 16.2705], [-4.3157, 16.1819], [-4.5208, 16.0128], [-4.7717, 15.9378], [-5.0177, 15.8481], [-5.2677, 15.7735], [-5.5175, 15.6983], [-5.7623, 15.6079], [-6, 15.5], [-6.049, 15.7326], [-6.1704, 15.9369], [-6.3613, 16.074], [-6.5322, 16.2354], [-6.6848, 16.4135], [-6.8878, 16.531], [-7.1235, 16.5528], [-7.3282, 16.6718], [-7.3869, 16.894], [-7.5253, 17.0775], [-7.6944, 17.2285], [-7.8302, 17.4099], [-7.9831, 17.5733], [-8.1564, 17.7149], [-8.3143, 17.8742], [-8.5, 18], [-8.6276, 18.2494], [-8.6209, 18.5294], [-8.6282, 18.8065], [-8.5257, 19.0641], [-8.7323, 19.2481], [-8.9215, 19.4499], [-8.9972, 19.7158], [-9.0593, 19.9852], [-9.1443, 20.2397], [-9.0999, 20.5044], [-9.241, 20.7296], [-9.283, 20.9919], [-9.3523, 21.2518], [-9.5083, 21.4708], [-9.544, 21.736], [-9.5, 22], [-9.3542, 22.165], [-9.1634, 22.2749], [-9.0177, 22.4363], [-8.8849, 22.6085], [-8.761, 22.7861], [-8.6299, 22.9583], [-8.5107, 23.139], [-8.3992, 23.3246], [-8.4457, 23.5451], [-8.4712, 23.769], [-8.4253, 23.9929], [-8.3054, 24.1875], [-8.2201, 24.3954], [-8.2227, 24.6201], [-8.0774, 24.7901], [-8, 25], [-8.0581, 25.2519], [-8.1419, 25.4964], [-8.2978, 25.7094], [-8.3529, 25.9676], [-8.4964, 26.1894], [-8.53, 26.4515], [-8.6447, 26.6869], [-8.6695, 26.9476], [-8.6391, 27.2159], [-8.4882, 27.4399], [-8.4945, 27.705], [-8.4236, 27.9605], [-8.4283, 28.2346], [-8.564, 28.4727], [-8.556, 28.7393], [-8.5, 29], [-8.3862, 28.8451], [-8.2324, 28.7298], [-8.0389, 28.717], [-7.8654, 28.6304], [-7.6899, 28.5547], [-7.5521, 28.4222], [-7.3583, 28.4465], [-7.18, 28.3667], [-6.9919, 28.3289], [-6.8498, 28.2], [-6.7, 28.0893], [-6.58, 27.947], [-6.43, 27.8405], [-6.3006, 27.7098], [-6.1615, 27.5889], [-6, 27.5], [-5.803, 27.544], [-5.6012, 27.5507], [-5.4065, 27.4982], [-5.223, 27.4145], [-5.027, 27.3669], [-4.832, 27.4184], [-4.6348, 27.4489], [-4.4415, 27.3992], [-4.24, 27.415], [-4.0686, 27.5221], [-3.914, 27.647], [-3.7283, 27.7178], [-3.5311, 27.7694], [-3.3841, 27.9105], [-3.1901, 27.947], [-3, 28], [-3.0164, 28.228], [-3.0303, 28.4562], [-2.9169, 28.6561], [-2.8463, 28.8748], [-2.8084, 29.1013], [-2.817, 29.3307], [-2.859, 29.5613], [-2.9981, 29.75], [-3.0208, 29.9778], [-2.9227, 30.1846], [-2.9216, 30.4055], [-2.9462, 30.6251], [-2.9955, 30.847], [-2.9313, 31.0651], [-2.9148, 31.2906], [-3, 31.5]]]}}, {"type": "Feature", "properties": {"id": "the-stormlands", "name": "The Stormlands"}, "geometry": {"type": "Polygon", "coordinates": [[[3, 26], [3.1775, 26.0995], [3.3784, 26.1312], [3.5224, 26.2706], [3.6789, 26.3959], [3.8757, 26.4161], [4.0638, 26.4772], [4.2641, 26.4572], [4.4547, 26.5218], [4.6537, 26.5773], [4.8533, 26.5238], [5.0597, 26.5377], [5.2294, 26.656], [5.4297, 26.6639], [5.6299, 26.6529], [5.8142, 26.5746], [6, 26.5], [6.1078, 26.5491], [6.1857, 26.6383], [6.271, 26.7169], [6.3642, 26.7858], [6.3917, 26.9019], [6.4701, 26.9918], [6.5517, 27.0776], [6.5914, 27.1891], [6.604, 27.309], [6.6685, 27.4108], [6.7052, 27.5245], [6.6982, 27.6437], [6.8006, 27.7059], [6.8779, 27.7975], [6.9204, 27.9099], [7, 28], [7.0927, 27.9306], [7.1601, 27.8364], [7.2401, 27.7506], [7.3489, 27.7068], [7.4365, 27.6331], [7.5284, 27.5647], [7.5827, 27.4605], [7.677, 27.3905], [7.7966, 27.4229], [7.9177, 27.3964], [8.0196, 27.3317], [8.1294, 27.2816], [8.2241, 27.2122], [8.3294, 27.1601], [8.4158, 27.0813], [8.5, 27], [8.5113, 26.8004], [8.4701, 26.6048], [8.4577, 26.3995], [8.3412, 26.23], [8.4239, 26.0475], [8.4314, 25.8472], [8.5054, 25.6601], [8.4954, 25.4591], [8.3477, 25.3223], [8.2322, 25.1574], [8.1736, 24.9656], [8.0915, 24.7826], [8.1119, 24.5807], [8.1424, 24.38], [8.0209, 24.2088], [8, 24], [7.9692, 23.7957], [7.9236, 23.5941], [7.9662, 23.392], [8.0083, 23.1899], [8.1061, 23.0082], [8.201, 22.8251], [8.2438, 22.6222], [8.2447, 22.4149], [8.2988, 22.2102], [8.4198, 22.0365], [8.3949, 21.8244], [8.4616, 21.6216], [8.6022, 21.4531], [8.6472, 21.2384], [8.8478, 21.155], [9, 21], [8.8803, 20.8391], [8.7568, 20.6812], [8.654, 20.5076], [8.5143, 20.3619], [8.3833, 20.1992], [8.3423, 19.9944], [8.2259, 19.8258], [8.0673, 19.6962], [7.9265, 19.5364], [7.8627, 19.3333], [7.7061, 19.1871], [7.5002, 19.128], [7.3679, 18.9767], [7.2332, 18.8275], [7.1322, 18.6526], [7, 18.5], [6.8174, 18.4007], [6.6199, 18.336], [6.4121, 18.3376], [6.2072, 18.3035], [6.0003, 18.3222], [5.8009, 18.3806], [5.5998, 18.3229], [5.3907, 18.3278], [5.2206, 18.2174], [5.0433, 18.1189], [4.892, 17.9821], [4.714, 17.8826], [4.5184, 17.802], [4.3076, 17.7834], [4.1172, 17.6814], [4, 17.5], [3.745, 17.417], [3.4813, 17.3688], [3.2406, 17.4994], [2.9673, 17.5176], [2.7191, 17.5925], [2.4859, 17.7059], [2.2798, 17.8718], [2.0233, 17.9367], [1.7548, 17.9004], [1.5026, 17.9997], [1.2712, 18.1259], [1.019, 18.2027], [0.7521, 18.2101], [0.5105, 18.0963], [0.2684, 17.9784], [0, 18], [0.1914, 18.2034], [0.2849, 18.4665], [0.3589, 18.7394], [0.2883, 19.0131], [0.4549, 19.2205], [0.5563, 19.4665], [0.6523, 19.716], [0.8272, 19.9182], [0.7888, 20.1808], [0.7383, 20.4414], [0.783, 20.7034], [0.7959, 20.9689], [0.9497, 21.1961], [1.031, 21.4581], [0.9979, 21.728], [1, 22], [1.1654, 22.2338], [1.323, 22.4729], [1.421, 22.7443], [1.5823, 22.9835], [1.7286, 23.233], [1.9205, 23.4495], [2.1011, 23.6824], [2.3624, 23.8188], [2.5184, 24.0694], [2.6253, 24.3446], [2.7898, 24.5882], [2.9602, 24.8278], [2.9244, 25.1222], [2.8919, 25.4169], [2.9437, 25.7089], [3, 26]]]}}, {"type": "Feature", "properties": {"id": "dorne", "name": "Dorne"}, "geometry": {"type": "Polygon", "coordinates": [[[-6, 15.5], [-5.7623, 15.6079], [-5.5175, 15.6983], [-5.2677, 15.7735], [-5.0177, 15.8481], [-4.7717, 15.9378], [-4.5208, 16.0128], [-4.3157, 16.1819], [-4.0651, 16.2705], [-3.8223, 16.1641], [-3.5646, 16.1023], [-3.3283, 15.9652], [-3.055, 15.964], [-2.7837, 15.9698], [-2.5304, 16.0671], [-2.2582, 16.0892], [-2, 16], [-1.9733, 16.1872], [-1.8581, 16.3372], [-1.7753, 16.5013], [-1.663, 16.6467], [-1.5543, 16.7959], [-1.4839, 16.9666], [-1.3686, 17.1093], [-1.2427, 17.2427], [-1.0897, 17.362], [-0.8992, 17.3987], [-0.7962, 17.5575], [-0.6667, 17.6957], [-0.5264, 17.823], [-0.3422, 17.8672], [-0.1642, 17.9158], [0, 18], [0.2684, 17.9784], [0.5105, 18.0963], [0.7521, 18.2101], [1.019, 18.2027], [1.2712, 18.1259], [1.5026, 17.9997], [1.7548, 17.9004], [2.0233, 17.9367], [2.2798, 17.8718], [2.4859, 17.7059], [2.7191, 17.5925], [2.9673, 17.5176], [3.2406, 17.4994], [3.4813, 17.3688], [3.745, 17.417], [4, 17.5], [4.1172, 17.6814], [4.3076, 17.7834], [4.5184, 17.802], [4.714, 17.8826], [4.892, 17.9821], [5.0433, 18.1189], [5.2206, 18.2174], [5.3907, 18.3278], [5.5998, 18.3229], [5.8009, 18.3806], [6.0003, 18.3222], [6.2072, 18.3035], [6.4121, 18.3376], [6.6199, 18.336], [6.8174, 18.4007], [7, 18.5], [7.0868, 18.3353], [7.1197, 18.152], [7.2026, 17.9873], [7.2613, 17.8124], [7.3861, 17.6731], [7.4659, 17.5039], [7.5028, 17.3201], [7.5949, 17.1569], [7.7112, 16.9987], [7.7405, 16.8046], [7.7895, 16.6186], [7.8868, 16.4527], [8.0499, 16.3479], [8.1723, 16.1977], [8.3447, 16.1131], [8.5, 16], [8.4366, 15.7312], [8.4349, 15.455], [8.2874, 15.2174], [8.2408, 14.9416], [8.2057, 14.6693], [8.1312, 14.4051], [8.0743, 14.1314], [8.1299, 13.8575], [7.8976, 13.6944], [7.6657, 13.5307], [7.4896, 13.3074], [7.3416, 13.0646], [7.224, 12.8007], [7.0475, 12.5719], [6.96, 12.2912], [7, 12], [6.8196, 11.8228], [6.6576, 11.6287], [6.4222, 11.5373], [6.1846, 11.4517], [6.0183, 11.2586], [5.8449, 11.0718], [5.6135, 10.9581], [5.3586, 10.9196], [5.2283, 10.7082], [5.0481, 10.5374], [4.8978, 10.3378], [4.6894, 10.2001], [4.614, 9.9505], [4.4381, 9.7581], [4.2141, 9.6375], [4, 9.5], [3.7402, 9.5628], [3.4748, 9.5315], [3.2089, 9.4836], [2.9918, 9.3227], [2.733, 9.3364], [2.4882, 9.4215], [2.2321, 9.4372], [1.9756, 9.4455], [1.7341, 9.3623], [1.4946, 9.2732], [1.2374, 9.2867], [0.9851, 9.2347], [0.7259, 9.2547], [0.4685, 9.2185], [0.2272, 9.1244], [0, 9], [-0.238, 9.1176], [-0.5034, 9.1263], [-0.7645, 9.1051], [-1.0216, 9.1551], [-1.2604, 9.2616], [-1.5196, 9.2965], [-1.7727, 9.3533], [-2.0313, 9.3748], [-2.2708, 9.495], [-2.5373, 9.5236], [-2.776, 9.6415], [-2.9734, 9.8203], [-3.2293, 9.8738], [-3.4902, 9.8904], [-3.7322, 10.0054], [-4, 10], [-4.2464, 10.0628], [-4.4805, 10.1621], [-4.7046, 10.2973], [-4.9661, 10.3083], [-5.1545, 10.4852], [-5.315, 10.6878], [-5.5392, 10.8157], [-5.7759, 10.9189], [-5.9938, 11.0835], [-6.2621, 11.1344], [-6.4158, 11.3519], [-6.5937, 11.5502], [-6.6326, 11.8099], [-6.739, 12.0499], [-6.8356, 12.2946], [-7, 12.5], [-6.9796, 12.7057], [-7.0084, 12.9103], [-6.9401, 13.1064], [-6.8157, 13.2727], [-6.6895, 13.43], [-6.6072, 13.6141], [-6.5117, 13.7935], [-6.4852, 13.9951], [-6.4157, 14.1827], [-6.3829, 14.3801], [-6.2693, 14.5455], [-6.1988, 14.7334], [-6.149, 14.9288], [-6.0485, 15.1035], [-6.0219, 15.3015], [-6, 15.5]]]}}, {"type": "Feature", "properties": {"id": "iron-islands", "name": "The Iron Islands"}, "geometry": {"type": "MultiPolygon", "coordinates": [[[[-12, 35.5], [-11.8699, 35.5814], [-11.7563, 35.6845], [-11.6324, 35.7751], [-11.4942, 35.8418], [-11.3643, 35.9223], [-11.2438, 36.0163], [-11.145, 36.1388], [-11, 36.2], [-10.8904, 36.1753], [-10.7939, 36.1178], [-10.7404, 36.0187], [-10.6568, 35.9432], [-10.6082, 35.844], [-10.57, 35.7404], [-10.4912, 35.6626], [-10.4, 35.6], [-10.5008, 35.4982], [-10.581, 35.3795], [-10.6801, 35.2752], [-10.7486, 35.1486], [-10.8926, 35.1106], [-11.02, 35.0335], [-11.0955, 34.9056], [-11.2, 34.8], [-11.3118, 34.8775], [-11.4044, 34.9773], [-11.492, 35.0816], [-11.5535, 35.2031], [-11.6426, 35.3072], [-11.7476, 35.3954], [-11.8732, 35.4492], [-12, 35.5]]], [[[-11, 33.8], [-10.8955, 33.8443], [-10.7837, 33.8642], [-10.6775, 33.9061], [-10.5892, 33.9785], [-10.4803, 34.0181], [-10.4035, 34.1048], [-10.3003, 34.1494], [-10.2, 34.2], [-10.1617, 34.0997], [-10.1519, 33.9927], [-10.1678, 33.8874], [-10.1751, 33.7812], [-10.1359, 33.6839], [-10.0915, 33.5888], [-10.0216, 33.5061], [-10, 33.4], [-10.1044, 33.3696], [-10.2009, 33.3196], [-10.3073, 33.299], [-10.4153, 33.2908], [-10.5154, 33.2367], [-10.6291, 33.2387], [-10.7126, 33.167], [-10.8, 33.1], [-10.8511, 33.1817], [-10.9231, 33.2457], [-10.9538, 33.336], [-10.9895, 33.4244], [-10.9673, 33.5183], [-10.9512, 33.6134], [-10.997, 33.7011], [-11, 33.8]]]]}}]}