{"type": "FeatureCollection", "features": [{"type": "Feature", "properties": {"id": "new-york", "name": "New York"}, "geometry": {"type": "Point", "coordinates": [-74.006, 40.713]}}, {"type": "Feature", "properties": {"id": "los-angeles", "name": "Los Angeles"}, "geometry": {"type": "Point", "coordinates": [-118.244, 34.052]}}, {"type": "Feature", "properties": {"id": "chicago", "name": "Chicago"}, "geometry": {"type": "Point", "coordinates": [-87.63, 41.878]}}, {"type": "Feature", "properties": {"id": "houston", "name": "Houston"}, "geometry": {"type": "Point", "coordinates": [-95.37, 29.76]}}, {"type": "Feature", "properties": {"id": "phoenix", "name": "Phoenix"}, "geometry": {"type": "Point", "coordinates": [-112.074, 33.448]}}, {"type": "Feature", "properties": {"id": "philadelphia", "name": "Philadelphia"}, "geometry": {"type": "Point", "coordinates": [-75.165, 39.953]}}, {"type": "Feature", "properties": {"id": "san-antonio", "name": "San Antonio"}, "geometry": {"type": "Point", "coordinates": [-98.494, 29.424]}}, {"type": "Feature", "properties": {"id": "san-diego", "name": "San Diego"}, "geometry": {"type": "Point", "coordinates": [-117.161, 32.716]}}, {"type": "Feature", "properties": {"id": "dallas", "name": "Dallas"}, "geometry": {"type": "Point", "coordinates": [-96.797, 32.777]}}, {"type": "Feature", "properties": {"id": "atlanta", "name": "Atlanta"}, "geometry": {"type": "Point", "coordinates": [-84.388, 33.749]}}, {"type": "Feature", "properties": {"id": "detroit", "name": "Detroit"}, "geometry": {"type": "Point", "coordinates": [-83.046, 42.331]}}, {"type": "Feature", "properties": {"id": "milwaukee", "name": "Milwaukee"}, "geometry": {"type": "Point", "coordinates": [-87.907, 43.039]}}, {"type": "Feature", "properties": {"id": "pittsburgh", "name": "Pittsburgh"}, "geometry": {"type": "Point", "coordinates": [-79.996, 40.441]}}, {"type": "Feature", "properties": {"id": "las-vegas", "name": "Las Vegas"}, "geometry": {"type": "Point", "coordinates": [-115.14, 36.17]}}, {"type": "Feature", "properties": {"id": "charlotte", "name": "Charlotte"}, "geometry": {"type": "Point", "coordinates": [-80.843, 35.227]}}, {"type": "Feature", "properties": {"id": "miami", "name": "Miami"}, "geometry": {"type": "Point", "coordinates": [-80.192, 25.762]}}, {"type": "Feature", "properties": {"id": "seattle", "name": "Seattle"}, "geometry": {"type": "Point", "coordinates": [-122.332, 47.606]}}, {"type": "Feature", "properties": {"id": "denver", "name": "Denver"}, "geometry": {"type": "Point", "coordinates": [-104.99, 39.739]}}, {"type": "Feature", "properties": {"id": "minneapolis", "name": "Minneapolis"}, "geometry": {"type": "Point", "coordinates": [-93.265, 44.978]}}, {"type": "Feature", "properties": {"id": "boston", "name": "Boston"}, "geometry": {"type": "Point", "coordinates": [-71.059, 42.36]}}, {"type": "Feature", "properties": {"id": "washington", "name": "Washington"}, "geometry": {"type": "Point", "coordinates": [-77.037, 38.907]}}, {"type": "Feature", "properties": {"id": "tucson", "name": "Tucson"}, "geometry": {"type": "Point", "coordinates": [-110.975, 32.222]}}, {"type": "Feature", "properties": {"id": "raleigh", "name": "Raleigh"}, "geometry": {"type": "Point", "coordinates": [-78.638, 35.78]}}, {"type": "Feature", "properties": {"id": "madison", "name": "Madison"}, "geometry": {"type": "Point", "coordinates": [-89.401, 43.073]}}, {"type": "Feature", "properties": {"id": "grand-rapids", "name": "Grand Rapids"}, "geometry": {"type": "Point", "coordinates": [-85.668, 42.963]}}]}